[{"OBJECT_NAME":"ASTROCAST-0403","OBJECT_ID":"2023-001DG","EPOCH":"2026-03-09T19:45:35.762976","MEAN_MOTION":15.28004949,"ECCENTRICITY":0.00047706,"INCLINATION":97.5604,"RA_OF_ASC_NODE":161.3228,"ARG_OF_PERICENTER":338.0704,"MEAN_ANOMALY":22.033,"EPHEMERIS_TYPE":0,"CLASSIFICATION_TYPE":"U","NORAD_CAT_ID":55111,"ELEMENT_SET_NO":999,"REV_AT_EPOCH":12937,"BSTAR":0.0005131719,"MEAN_MOTION_DOT":0.00013959,"MEAN_MOTION_DDOT":0},{"OBJECT_NAME":"SPIP","OBJECT_ID":"2023-174AU","EPOCH":"2026-03-09T22:52:46.383168","MEAN_MOTION":15.26695413,"ECCENTRICITY":0.00100427,"INCLINATION":97.3901,"RA_OF_ASC_NODE":146.4534,"ARG_OF_PERICENTER":168.1112,"MEAN_ANOMALY":192.0366,"EPHEMERIS_TYPE":0,"CLASSIFICATION_TYPE":"U","NORAD_CAT_ID":58298,"ELEMENT_SET_NO":999,"REV_AT_EPOCH":12963,"BSTAR":0.00025731582,"MEAN_MOTION_DOT":6.692e-5,"MEAN_MOTION_DDOT":0}]
